{
    "links": {
        "self": "http://www.neowsapp.com/rest/v1/neo/3582041?api_key=iIulBulltgU6a56xZRHN4H3l9WmuAYTsLGpBGhQ2"
    },
    "id": "3582041",
    "neo_reference_id": "3582041",
    "name": "(2011 UE)",
    "designation": "2011 UE",
    "nasa_jpl_url": "http://ssd.jpl.nasa.gov/sbdb.cgi?sstr=3582041",
    "absolute_magnitude_h": 25.0,
    "estimated_diameter": {
        "kilometers": {
            "estimated_diameter_min": 0.02658,
            "estimated_diameter_max": 0.0594346868
        },
        "meters": {
            "estimated_diameter_min": 26.58,
            "estimated_diameter_max": 59.4346868419
        },
        "miles": {
            "estimated_diameter_min": 0.0165160412,
            "estimated_diameter_max": 0.0369309908
        },
        "feet": {
            "estimated_diameter_min": 87.2047272,
            "estimated_diameter_max": 194.9956979785
        }
    },
    "is_potentially_hazardous_asteroid": false,
    "close_approach_data": [
        {
            "close_approach_date": "2011-10-12",
            "close_approach_date_full": "2011-Oct-12 12:56",
            "epoch_date_close_approach": 1318424160000,
            "relative_velocity": {
                "kilometers_per_second": "7.8269600493",
                "kilometers_per_hour": "28177.0561775289",
                "miles_per_hour": "17508.1269343095"
            },
            "miss_distance": {
                "astronomical": "0.0186179775",
                "lunar": "7.2423932475",
                "kilometers": "2785209.777707925",
                "miles": "1730649.104602365"
            },
            "orbiting_body": "Earth"
        },
        {
            "close_approach_date": "2078-08-03",
            "close_approach_date_full": "2078-Aug-03 12:52",
            "epoch_date_close_approach": 3426756720000,
            "relative_velocity": {
                "kilometers_per_second": "16.2731737568",
                "kilometers_per_hour": "58583.4255246355",
                "miles_per_hour": "36401.4623766826"
            },
            "miss_distance": {
                "astronomical": "0.3505659962",
                "lunar": "136.3701725218",
                "kilometers": "52443926.325948094",
                "miles": "32587144.7329639372"
            },
            "orbiting_body": "Earth"
        }
    ],
    "orbital_data": {
        "orbit_id": "8",
        "orbit_determination_date": "2017-04-06 08:52:28",
        "first_observation_date": "2011-10-17",
        "last_observation_date": "2011-10-22",
        "data_arc_in_days": 5,
        "observations_used": 39,
        "orbit_uncertainty": "7",
        "minimum_orbit_intersection": ".0192642",
        "jupiter_tisserand_invariant": "3.954",
        "epoch_osculation": "2459000.5",
        "eccentricity": ".4389581029847212",
        "semi_major_axis": "1.788081815783527",
        "inclination": "7.852318376817702",
        "ascending_node_longitude": "22.79064844154201",
        "orbital_period": "873.3322677909428",
        "perihelion_distance": "1.003188813945714",
        "perihelion_argument": "340.6580955891553",
        "aphelion_distance": "2.57297481762134",
        "perihelion_time": "2459328.051401406801",
        "mean_anomaly": "224.9786468960795",
        "mean_motion": ".412214243395134",
        "equinox": "J2000",
        "orbit_class": {
            "orbit_class_type": "APO",
            "orbit_class_description": "Near-Earth asteroid orbits which cross the Earth’s orbit similar to that of 1862 Apollo",
            "orbit_class_range": "a (semi-major axis) > 1.0 AU; q (perihelion) < 1.017 AU"
        }
    },
    "is_sentry_object": false
}